OBJECT_NAME,OBJECT_ID,EPOCH,MEAN_MOTION,ECCENTRICITY,INCLINATION,RA_OF_ASC_NODE,ARG_OF_PERICENTER,MEAN_ANOMALY,EPHEMERIS_TYPE,CLASSIFICATION_TYPE,NORAD_CAT_ID,ELEMENT_SET_NO,REV_AT_EPOCH,BSTAR,MEAN_MOTION_DOT,MEAN_MOTION_DDOT
DMSP 5D-3 F16 (USA 172),2003-048A,2026-06-11T14:04:12.213408,14.14482630,.00074727,98.9892,186.3774,154.6961,316.4821,0,U,28054,999,16869,.19582075E-4,-.8E-7,0
METEOSAT-9 (MSG-2),2005-049B,2026-06-10T20:21:02.721024,1.00269523,.0001608,9.3464,54.2281,348.0762,207.8226,0,U,28912,999,693,0,.136E-5,0
DMSP 5D-3 F17 (USA 191),2006-050A,2026-06-11T14:00:14.526144,14.14992251,.00112946,98.7378,169.2682,73.6994,286.5421,0,U,29522,999,1163,.32339715E-4,.19E-6,0
FENGYUN 3A,2008-026A,2026-06-11T13:11:26.155392,14.19570033,.00093573,98.6883,103.4883,138.5545,221.6343,0,U,32958,999,93460,.4217553E-4,.46E-6,0
GOES 14,2009-033A,2026-06-11T13:56:03.712128,1.00112739,.00018013,1.6747,83.1097,7.9404,162.9425,0,U,35491,999,653,0,-.253E-5,0
DMSP 5D-3 F18 (USA 210),2009-057A,2026-06-11T15:00:19.278432,14.14893709,.00098433,98.9035,143.4064,267.2388,92.7659,0,U,35951,999,85880,.14450676E-3,.234E-5,0
EWS-G2 (GOES 15),2010-008A,2026-06-11T13:32:49.871040,1.00275507,.00054135,1.2616,82.9449,40.6741,43.1421,0,U,36411,999,5958,0,.34E-6,0
COMS 1,2010-032A,2026-06-03T23:47:39.107040,1.00270643,.0001016,4.7750,75.5286,4.5847,297.3769,0,U,36744,999,5095,0,-.334E-5,0
FENGYUN 3B,2010-059A,2026-06-11T15:45:37.801728,14.14839658,.00215879,98.9625,208.6479,199.8889,274.1964,0,U,37214,999,80664,.44458621E-4,.41E-6,0
SUOMI NPP,2011-061A,2026-06-11T15:08:53.098368,14.19516245,.00018407,98.7954,103.5452,19.3329,340.7917,0,U,37849,999,75765,.43106136E-4,.47E-6,0
METEOSAT-10 (MSG-3),2012-035B,2026-06-11T08:06:50.289984,1.00275943,.00014649,4.6571,61.0428,331.4803,349.1317,0,U,38552,999,5079,0,.1E-6,0
METOP-B,2012-049A,2026-06-11T13:23:58.547328,14.21431212,.00025734,98.6506,214.1696,33.1763,326.9575,0,U,38771,999,71246,.60381704E-4,.89E-6,0
INSAT-3D,2013-038B,2026-06-11T13:51:35.777088,1.00271990,.00006478,1.9108,82.6096,312.4653,202.2697,0,U,39216,999,4702,0,-.323E-5,0
FENGYUN 3C,2013-052A,2026-06-11T14:26:48.778944,14.15753838,.00155213,98.4976,136.7333,42.9600,317.2784,0,U,39260,999,65777,.62069161E-4,.81E-6,0
METEOR-M 2,2014-037A,2026-06-11T15:43:27.436224,14.21458626,.00069499,98.5108,138.5893,57.8923,302.2928,0,U,40069,999,61853,-.10555003E-3,-.273E-5,0
HIMAWARI-8,2014-060A,2026-06-11T13:54:48.831840,1.00269650,.00007353,0.0135,324.3419,146.3196,138.6238,0,U,40267,999,4270,0,-.259E-5,0
FENGYUN 2G,2014-090A,2026-06-11T15:25:45.944832,1.00275075,.00037261,5.6236,72.8841,152.8670,5.3248,0,U,40367,999,4194,0,-.289E-5,0
METEOSAT-11 (MSG-4),2015-034A,2026-06-11T06:26:47.369184,1.00278494,.00017333,3.1872,71.1443,7.6237,287.0442,0,U,40732,999,715,0,.8E-6,0
ELEKTRO-L 2,2015-074A,2026-06-10T23:29:22.228800,1.00271247,.00008138,6.6771,70.6006,270.8986,255.6834,0,U,41105,999,3844,0,-.103E-5,0
SENTINEL-3A,2016-011A,2026-06-11T14:32:53.374848,14.26738425,.00013768,98.6249,230.0697,103.4974,256.6360,0,U,41335,999,53726,.51909639E-4,.82E-6,0
INSAT-3DR,2016-054A,2026-06-11T11:53:04.593120,1.00270275,.00105668,0.0908,87.1653,186.8122,238.1118,0,U,41752,999,3576,0,-.6E-6,0
HIMAWARI-9,2016-064A,2026-06-11T13:54:48.831840,1.00271138,.00008078,0.0494,143.3345,349.2512,116.8210,0,U,41836,999,3515,0,-.258E-5,0
GOES 16,2016-071A,2026-06-11T12:44:48.532992,1.00270233,.00002801,0.3256,85.5640,303.7600,317.0743,0,U,41866,999,3504,0,-.74E-6,0
FENGYUN 4A,2016-077A,2026-06-11T15:32:37.786848,1.00271870,.00085162,2.3073,80.3541,151.7691,24.8103,0,U,41882,999,3487,0,-.341E-5,0
CYGFM05,2016-078A,2026-06-11T11:18:47.940480,15.56417707,.00067762,34.9572,298.4320,92.2280,267.9220,0,U,41884,999,52786,.27745751E-3,.20275E-3,0
CYGFM04,2016-078B,2026-06-11T12:33:59.379552,15.61202378,.00060849,34.9326,266.0600,140.2618,219.8554,0,U,41885,999,52811,.3419935E-3,.3003E-3,0
CYGFM02,2016-078C,2026-06-11T12:50:28.437504,15.64140533,.00070699,34.9406,260.6830,141.7664,218.3565,0,U,41886,999,52828,.34078512E-3,.33609E-3,0
CYGFM01,2016-078D,2026-06-11T15:43:05.259936,15.57096635,.00065674,34.9403,298.3195,86.8683,273.2793,0,U,41887,999,52784,.3136867E-3,.2353E-3,0
CYGFM08,2016-078E,2026-06-11T14:58:19.606656,15.59731170,.00078135,34.9433,278.2499,121.6627,238.4861,0,U,41888,999,52810,.33436333E-3,.27747E-3,0
CYGFM07,2016-078G,2026-06-11T12:27:49.971168,15.59825422,.00063758,34.9452,267.2924,139.1708,220.9495,0,U,41890,999,52811,.30111523E-3,.25052E-3,0
CYGFM03,2016-078H,2026-06-11T11:46:02.301888,15.59818699,.00059387,34.9400,269.4243,125.5783,234.5496,0,U,41891,999,52808,.32628067E-3,.27148E-3,0
